[{"OBJECT_NAME":"STARLINK-36950","OBJECT_ID":"2026-039G","EPOCH":"2026-03-03T14:00:03.000384","MEAN_MOTION":16.02154769,"ECCENTRICITY":0.000175,"INCLINATION":42.999,"RA_OF_ASC_NODE":92.9616,"ARG_OF_PERICENTER":277.6024,"MEAN_ANOMALY":350.1725,"EPHEMERIS_TYPE":0,"CLASSIFICATION_TYPE":"U","NORAD_CAT_ID":67992,"ELEMENT_SET_NO":999,"REV_AT_EPOCH":189,"BSTAR":-0.0019752,"MEAN_MOTION_DOT":-0.01191871,"MEAN_MOTION_DDOT":0.00046252},{"OBJECT_NAME":"STARLINK-36975","OBJECT_ID":"2026-039H","EPOCH":"2026-03-03T14:00:03.000384","MEAN_MOTION":16.02266174,"ECCENTRICITY":0.0001823,"INCLINATION":42.999,"RA_OF_ASC_NODE":92.9599,"ARG_OF_PERICENTER":277.2001,"MEAN_ANOMALY":351.2886,"EPHEMERIS_TYPE":0,"CLASSIFICATION_TYPE":"U","NORAD_CAT_ID":67993,"ELEMENT_SET_NO":999,"REV_AT_EPOCH":189,"BSTAR":-0.001948,"MEAN_MOTION_DOT":-0.01183344,"MEAN_MOTION_DDOT":0.00045705},{"OBJECT_NAME":"STARLINK-36993","OBJECT_ID":"2026-039J","EPOCH":"2026-03-03T14:00:03.000384","MEAN_MOTION":16.02402663,"ECCENTRICITY":0.0001773,"INCLINATION":42.9991,"RA_OF_ASC_NODE":92.958,"ARG_OF_PERICENTER":278.3645,"MEAN_ANOMALY":350.8986,"EPHEMERIS_TYPE":0,"CLASSIFICATION_TYPE":"U","NORAD_CAT_ID":67994,"ELEMENT_SET_NO":999,"REV_AT_EPOCH":189,"BSTAR":-0.0019321,"MEAN_MOTION_DOT":-0.01183208,"MEAN_MOTION_DDOT":0.00045765},{"OBJECT_NAME":"STARLINK-36968","OBJECT_ID":"2026-039K","EPOCH":"2026-03-03T14:00:03.000384","MEAN_MOTION":16.02714179,"ECCENTRICITY":0.0001796,"INCLINATION":42.9991,"RA_OF_ASC_NODE":92.9514,"ARG_OF_PERICENTER":278.7541,"MEAN_ANOMALY":353.1164,"EPHEMERIS_TYPE":0,"CLASSIFICATION_TYPE":"U","NORAD_CAT_ID":67995,"ELEMENT_SET_NO":999,"REV_AT_EPOCH":189,"BSTAR":-0.001902,"MEAN_MOTION_DOT":-0.01186525,"MEAN_MOTION_DDOT":0.00046159},{"OBJECT_NAME":"STARLINK-36979","OBJECT_ID":"2026-039L","EPOCH":"2026-03-03T14:00:03.000384","MEAN_MOTION":16.025943,"ECCENTRICITY":0.0001756,"INCLINATION":42.999,"RA_OF_ASC_NODE":92.9531,"ARG_OF_PERICENTER":278.5554,"MEAN_ANOMALY":352.5876,"EPHEMERIS_TYPE":0,"CLASSIFICATION_TYPE":"U","NORAD_CAT_ID":67996,"ELEMENT_SET_NO":999,"REV_AT_EPOCH":189,"BSTAR":-0.0019212,"MEAN_MOTION_DOT":-0.01189905,"MEAN_MOTION_DDOT":0.00046338},{"OBJECT_NAME":"STARLINK-36994","OBJECT_ID":"2026-039M","EPOCH":"2026-03-03T14:00:03.000384","MEAN_MOTION":16.02990922,"ECCENTRICITY":0.0001789,"INCLINATION":42.999,"RA_OF_ASC_NODE":92.9472,"ARG_OF_PERICENTER":278.5694,"MEAN_ANOMALY":354.8785,"EPHEMERIS_TYPE":0,"CLASSIFICATION_TYPE":"U","NORAD_CAT_ID":67997,"ELEMENT_SET_NO":999,"REV_AT_EPOCH":189,"BSTAR":-0.0018605,"MEAN_MOTION_DOT":-0.01180014,"MEAN_MOTION_DDOT":0.00045839},{"OBJECT_NAME":"STARLINK-36988","OBJECT_ID":"2026-039N","EPOCH":"2026-03-03T14:00:03.000384","MEAN_MOTION":16.02870609,"ECCENTRICITY":0.0001748,"INCLINATION":42.9991,"RA_OF_ASC_NODE":92.9492,"ARG_OF_PERICENTER":277.7253,"MEAN_ANOMALY":354.9822,"EPHEMERIS_TYPE":0,"CLASSIFICATION_TYPE":"U","NORAD_CAT_ID":67998,"ELEMENT_SET_NO":999,"REV_AT_EPOCH":189,"BSTAR":-0.001884,"MEAN_MOTION_DOT":-0.0118624,"MEAN_MOTION_DDOT":0.0004622},{"OBJECT_NAME":"STARLINK-36926","OBJECT_ID":"2026-039P","EPOCH":"2026-03-03T14:00:03.000384","MEAN_MOTION":16.03120618,"ECCENTRICITY":0.0001833,"INCLINATION":42.9991,"RA_OF_ASC_NODE":92.9455,"ARG_OF_PERICENTER":276.2339,"MEAN_ANOMALY":357.9852,"EPHEMERIS_TYPE":0,"CLASSIFICATION_TYPE":"U","NORAD_CAT_ID":67999,"ELEMENT_SET_NO":999,"REV_AT_EPOCH":189,"BSTAR":-0.0018348,"MEAN_MOTION_DOT":-0.0117281,"MEAN_MOTION_DDOT":0.00045395},{"OBJECT_NAME":"STARLINK-36931","OBJECT_ID":"2026-039Q","EPOCH":"2026-03-03T14:00:03.000384","MEAN_MOTION":16.03207784,"ECCENTRICITY":0.0001788,"INCLINATION":42.9992,"RA_OF_ASC_NODE":92.944,"ARG_OF_PERICENTER":278.0237,"MEAN_ANOMALY":356.8308,"EPHEMERIS_TYPE":0,"CLASSIFICATION_TYPE":"U","NORAD_CAT_ID":68000,"ELEMENT_SET_NO":999,"REV_AT_EPOCH":189,"BSTAR":-0.0018192,"MEAN_MOTION_DOT":-0.01168961,"MEAN_MOTION_DDOT":0.00045167},{"OBJECT_NAME":"STARLINK-36903","OBJECT_ID":"2026-039R","EPOCH":"2026-03-03T14:00:03.000384","MEAN_MOTION":16.03346782,"ECCENTRICITY":0.0001768,"INCLINATION":42.9994,"RA_OF_ASC_NODE":92.942,"ARG_OF_PERICENTER":278.6409,"MEAN_ANOMALY":356.9989,"EPHEMERIS_TYPE":0,"CLASSIFICATION_TYPE":"U","NORAD_CAT_ID":68001,"ELEMENT_SET_NO":999,"REV_AT_EPOCH":189,"BSTAR":-0.0018002,"MEAN_MOTION_DOT":-0.01166475,"MEAN_MOTION_DDOT":0.00045063},{"OBJECT_NAME":"STARLINK-36898","OBJECT_ID":"2026-039S","EPOCH":"2026-03-03T14:00:03.000384","MEAN_MOTION":16.03590578,"ECCENTRICITY":0.0001733,"INCLINATION":42.9993,"RA_OF_ASC_NODE":92.9378,"ARG_OF_PERICENTER":282.852,"MEAN_ANOMALY":354.354,"EPHEMERIS_TYPE":0,"CLASSIFICATION_TYPE":"U","NORAD_CAT_ID":68002,"ELEMENT_SET_NO":999,"REV_AT_EPOCH":189,"BSTAR":-0.0017658,"MEAN_MOTION_DOT":-0.01161132,"MEAN_MOTION_DDOT":0.00044809},{"OBJECT_NAME":"STARLINK-36862","OBJECT_ID":"2026-039T","EPOCH":"2026-03-03T14:00:03.000384","MEAN_MOTION":16.0380744,"ECCENTRICITY":0.0001747,"INCLINATION":42.9993,"RA_OF_ASC_NODE":92.9343,"ARG_OF_PERICENTER":281.1507,"MEAN_ANOMALY":357.4698,"EPHEMERIS_TYPE":0,"CLASSIFICATION_TYPE":"U","NORAD_CAT_ID":68003,"ELEMENT_SET_NO":999,"REV_AT_EPOCH":189,"BSTAR":-0.0017229,"MEAN_MOTION_DOT":-0.01147998,"MEAN_MOTION_DDOT":0.00043996},{"OBJECT_NAME":"STARLINK-36888","OBJECT_ID":"2026-039U","EPOCH":"2026-03-03T14:00:03.000384","MEAN_MOTION":16.03456999,"ECCENTRICITY":0.0001746,"INCLINATION":42.9995,"RA_OF_ASC_NODE":92.9401,"ARG_OF_PERICENTER":279.5219,"MEAN_ANOMALY":356.9165,"EPHEMERIS_TYPE":0,"CLASSIFICATION_TYPE":"U","NORAD_CAT_ID":68004,"ELEMENT_SET_NO":999,"REV_AT_EPOCH":189,"BSTAR":-0.0017819,"MEAN_MOTION_DOT":-0.011623,"MEAN_MOTION_DDOT":0.00044824},{"OBJECT_NAME":"STARLINK-36910","OBJECT_ID":"2026-039V","EPOCH":"2026-03-03T14:00:03.000384","MEAN_MOTION":16.03710471,"ECCENTRICITY":0.0001782,"INCLINATION":42.9993,"RA_OF_ASC_NODE":92.9361,"ARG_OF_PERICENTER":278.8511,"MEAN_ANOMALY":359.0975,"EPHEMERIS_TYPE":0,"CLASSIFICATION_TYPE":"U","NORAD_CAT_ID":68005,"ELEMENT_SET_NO":999,"REV_AT_EPOCH":189,"BSTAR":-0.001742,"MEAN_MOTION_DOT":-0.0115386,"MEAN_MOTION_DDOT":0.00044358},{"OBJECT_NAME":"STARLINK-36889","OBJECT_ID":"2026-039W","EPOCH":"2026-03-03T14:00:03.000384","MEAN_MOTION":16.03915477,"ECCENTRICITY":0.0001816,"INCLINATION":42.9993,"RA_OF_ASC_NODE":92.9323,"ARG_OF_PERICENTER":280.4569,"MEAN_ANOMALY":358.8656,"EPHEMERIS_TYPE":0,"CLASSIFICATION_TYPE":"U","NORAD_CAT_ID":68006,"ELEMENT_SET_NO":999,"REV_AT_EPOCH":189,"BSTAR":-0.0017025,"MEAN_MOTION_DOT":-0.01141877,"MEAN_MOTION_DDOT":0.00043622},{"OBJECT_NAME":"STARLINK-36592","OBJECT_ID":"2026-039X","EPOCH":"2026-03-03T14:00:03.000384","MEAN_MOTION":16.0402076,"ECCENTRICITY":0.000177,"INCLINATION":42.9994,"RA_OF_ASC_NODE":92.9309,"ARG_OF_PERICENTER":280.3188,"MEAN_ANOMALY":359.7055,"EPHEMERIS_TYPE":0,"CLASSIFICATION_TYPE":"U","NORAD_CAT_ID":68007,"ELEMENT_SET_NO":999,"REV_AT_EPOCH":189,"BSTAR":-0.0016825,"MEAN_MOTION_DOT":-0.01135742,"MEAN_MOTION_DDOT":0.00043247}]
